start=new Date('2021-09-03T00:00:00.000Z').valueOf();
sats=[{"LAUNCH_DATE":"2021-04-29","GP_ID":"183989601","RCS_SIZE":"LARGE","OBJECT_ID":"2021-036Z","REV_AT_EPOCH":"356","ECCENTRICITY":"0.00010960","ELEMENT_SET_NO":"999","CENTER_NAME":"EARTH","EPHEMERIS_TYPE":"0","DECAY_DATE":null,"EPOCH":"2021-09-02T22:00:01.999584","MEAN_ANOMALY":"94.0049","PERIAPSIS":"546.506","APOAPSIS":"548.024","SEMIMAJOR_AXIS":"6925.400","CLASSIFICATION_TYPE":"U","TIME_SYSTEM":"UTC","BSTAR":"0.00162030000000","FILE":"3107724","ARG_OF_PERICENTER":"76.6822","TLE_LINE2":"2 48299  53.0538 283.2284 0001096  76.6822  94.0049 15.06383185  3564","INCLINATION":"53.0538","OBJECT_TYPE":"PAYLOAD","MEAN_MOTION_DDOT":"0.0000000000000","REF_FRAME":"TEME","SITE":"AFETR","TLE_LINE1":"1 48299U 21036Z   21245.91668981  .00023924  00000-0  16203-2 0  9990","NORAD_CAT_ID":"48299","MEAN_ELEMENT_THEORY":"SGP4","PERIOD":"95.593","MEAN_MOTION":"15.06383185","MEAN_MOTION_DOT":"0.00023924","COUNTRY_CODE":"US","OBJECT_NAME":"STARLINK-2557","RA_OF_ASC_NODE":"283.2284"},{"MEAN_ANOMALY":"221.1508","EPOCH":"2021-09-02T09:54:01.698624","DECAY_DATE":null,"EPHEMERIS_TYPE":"0","CENTER_NAME":"EARTH","ELEMENT_SET_NO":"999","TIME_SYSTEM":"UTC","APOAPSIS":"547.553","PERIAPSIS":"546.885","CLASSIFICATION_TYPE":"U","SEMIMAJOR_AXIS":"6925.354","ECCENTRICITY":"0.00004820","RCS_SIZE":"LARGE","GP_ID":"183961132","REV_AT_EPOCH":"1959","OBJECT_ID":"2021-036AA","LAUNCH_DATE":"2021-04-29","MEAN_MOTION_DOT":"0.00000572","PERIOD":"95.592","MEAN_MOTION":"15.06398185","RA_OF_ASC_NODE":"295.4766","OBJECT_NAME":"STARLINK-2538","COUNTRY_CODE":"US","REF_FRAME":"TEME","MEAN_MOTION_DDOT":"0.0000000000000","OBJECT_TYPE":"PAYLOAD","TLE_LINE2":"2 48300  53.0650 295.4766 0000482 138.9517 221.1508 15.06398185 19592","INCLINATION":"53.0650","FILE":"3107538","BSTAR":"0.00005726900000","ARG_OF_PERICENTER":"138.9517","MEAN_ELEMENT_THEORY":"SGP4","NORAD_CAT_ID":"48300","TLE_LINE1":"1 48300U 21036AA  21245.41251966  .00000572  00000-0  57269-4 0  9992","SITE":"AFETR"},{"ECCENTRICITY":"0.00002080","OBJECT_ID":"2021-036AB","GP_ID":"183961387","RCS_SIZE":"LARGE","REV_AT_EPOCH":"1960","LAUNCH_DATE":"2021-04-29","MEAN_ANOMALY":"207.0064","EPOCH":"2021-09-02T12:59:47.409216","DECAY_DATE":null,"EPHEMERIS_TYPE":"0","CENTER_NAME":"EARTH","ELEMENT_SET_NO":"999","TIME_SYSTEM":"UTC","PERIAPSIS":"547.084","CLASSIFICATION_TYPE":"U","APOAPSIS":"547.372","SEMIMAJOR_AXIS":"6925.363","REF_FRAME":"TEME","MEAN_MOTION_DDOT":"0.0000000000000","INCLINATION":"53.0506","TLE_LINE2":"2 48301  53.0506 294.9399 0000208 153.0936 207.0064 15.06395431 19601","OBJECT_TYPE":"PAYLOAD","FILE":"3107538","BSTAR":"0.00019411000000","ARG_OF_PERICENTER":"153.0936","MEAN_ELEMENT_THEORY":"SGP4","NORAD_CAT_ID":"48301","TLE_LINE1":"1 48301U 21036AB  21245.54152094  .00002611  00000-0  19411-3 0  9991","SITE":"AFETR","MEAN_MOTION_DOT":"0.00002611","MEAN_MOTION":"15.06395431","PERIOD":"95.592","RA_OF_ASC_NODE":"294.9399","OBJECT_NAME":"STARLINK-2537","COUNTRY_CODE":"US"},{"OBJECT_NAME":"STARLINK-2556","COUNTRY_CODE":"US","RA_OF_ASC_NODE":"295.5367","MEAN_MOTION":"15.06385515","PERIOD":"95.593","MEAN_MOTION_DOT":"0.00000819","SITE":"AFETR","NORAD_CAT_ID":"48302","TLE_LINE1":"1 48302U 21036AC  21245.40517172  .00000819  00000-0  73846-4 0  9990","MEAN_ELEMENT_THEORY":"SGP4","FILE":"3107538","ARG_OF_PERICENTER":"114.7984","BSTAR":"0.00007384600000","TLE_LINE2":"2 48302  53.0518 295.5367 0000732 114.7984 245.3081 15.06385515 19589","OBJECT_TYPE":"PAYLOAD","INCLINATION":"53.0518","REF_FRAME":"TEME","MEAN_MOTION_DDOT":"0.0000000000000","TIME_SYSTEM":"UTC","APOAPSIS":"547.765","PERIAPSIS":"546.751","SEMIMAJOR_AXIS":"6925.393","CLASSIFICATION_TYPE":"U","ELEMENT_SET_NO":"999","CENTER_NAME":"EARTH","DECAY_DATE":null,"EPHEMERIS_TYPE":"0","MEAN_ANOMALY":"245.3081","EPOCH":"2021-09-02T09:43:26.836608","LAUNCH_DATE":"2021-04-29","ECCENTRICITY":"0.00007320","OBJECT_ID":"2021-036AC","GP_ID":"183962134","RCS_SIZE":"LARGE","REV_AT_EPOCH":"1958"},{"LAUNCH_DATE":"2021-04-29","OBJECT_ID":"2021-036AD","GP_ID":"183960882","RCS_SIZE":"LARGE","REV_AT_EPOCH":"1958","ECCENTRICITY":"0.00005080","PERIAPSIS":"546.894","SEMIMAJOR_AXIS":"6925.381","APOAPSIS":"547.598","CLASSIFICATION_TYPE":"U","TIME_SYSTEM":"UTC","CENTER_NAME":"EARTH","ELEMENT_SET_NO":"999","MEAN_ANOMALY":"211.1039","EPOCH":"2021-09-02T09:38:07.408896","EPHEMERIS_TYPE":"0","DECAY_DATE":null,"SITE":"AFETR","MEAN_ELEMENT_THEORY":"SGP4","TLE_LINE1":"1 48303U 21036AD  21245.40147464  .00000822  00000-0  74066-4 0  9993","NORAD_CAT_ID":"48303","OBJECT_TYPE":"PAYLOAD","TLE_LINE2":"2 48303  53.0541 295.5550 0000508 148.9980 211.1039 15.06389315 19582","INCLINATION":"53.0541","BSTAR":"0.00007406600000","FILE":"3107538","ARG_OF_PERICENTER":"148.9980","REF_FRAME":"TEME","MEAN_MOTION_DDOT":"0.0000000000000","COUNTRY_CODE":"US","OBJECT_NAME":"STARLINK-2530","RA_OF_ASC_NODE":"295.5550","MEAN_MOTION_DOT":"0.00000822","MEAN_MOTION":"15.06389315","PERIOD":"95.593"},{"PERIOD":"95.593","MEAN_MOTION":"15.06393121","MEAN_MOTION_DOT":"0.00000498","RA_OF_ASC_NODE":"294.9752","OBJECT_NAME":"STARLINK-2524","COUNTRY_CODE":"US","MEAN_MOTION_DDOT":"0.0000000000000","REF_FRAME":"TEME","FILE":"3107538","ARG_OF_PERICENTER":"125.7667","BSTAR":"0.00005227500000","TLE_LINE2":"2 48304  53.0553 294.9752 0000366 125.7667 234.3356 15.06393121 19602","OBJECT_TYPE":"PAYLOAD","INCLINATION":"53.0553","NORAD_CAT_ID":"48304","TLE_LINE1":"1 48304U 21036AE  21245.53047588  .00000498  00000-0  52275-4 0  9991","MEAN_ELEMENT_THEORY":"SGP4","SITE":"AFETR","DECAY_DATE":null,"EPHEMERIS_TYPE":"0","EPOCH":"2021-09-02T12:43:53.116032","MEAN_ANOMALY":"234.3356","ELEMENT_SET_NO":"999","CENTER_NAME":"EARTH","TIME_SYSTEM":"UTC","PERIAPSIS":"546.981","SEMIMAJOR_AXIS":"6925.370","APOAPSIS":"547.488","CLASSIFICATION_TYPE":"U","ECCENTRICITY":"0.00003660","RCS_SIZE":"LARGE","GP_ID":"183960636","REV_AT_EPOCH":"1960","OBJECT_ID":"2021-036AE","LAUNCH_DATE":"2021-04-29"},{"REF_FRAME":"TEME","MEAN_MOTION_DDOT":"0.0000000000000","FILE":"3107724","ARG_OF_PERICENTER":"84.4881","BSTAR":"0.00009013200000","INCLINATION":"53.0549","TLE_LINE2":"2 48305  53.0549 294.3918 0000338  84.4881 275.6147 15.06394302 19624","OBJECT_TYPE":"PAYLOAD","NORAD_CAT_ID":"48305","TLE_LINE1":"1 48305U 21036AF  21245.65948166  .00001062  00000-0  90132-4 0  9999","MEAN_ELEMENT_THEORY":"SGP4","SITE":"AFETR","PERIOD":"95.593","MEAN_MOTION":"15.06394302","MEAN_MOTION_DOT":"0.00001062","RA_OF_ASC_NODE":"294.3918","OBJECT_NAME":"STARLINK-2519","COUNTRY_CODE":"US","ECCENTRICITY":"0.00003380","RCS_SIZE":"LARGE","GP_ID":"183988600","OBJECT_ID":"2021-036AF","REV_AT_EPOCH":"1962","LAUNCH_DATE":"2021-04-29","EPHEMERIS_TYPE":"0","DECAY_DATE":null,"MEAN_ANOMALY":"275.6147","EPOCH":"2021-09-02T15:49:39.215424","ELEMENT_SET_NO":"999","CENTER_NAME":"EARTH","TIME_SYSTEM":"UTC","PERIAPSIS":"546.997","APOAPSIS":"547.465","SEMIMAJOR_AXIS":"6925.366","CLASSIFICATION_TYPE":"U"},{"REF_FRAME":"TEME","MEAN_MOTION_DDOT":"0.0000000000000","FILE":"3107724","BSTAR":"0.00005747000000","ARG_OF_PERICENTER":"108.9339","TLE_LINE2":"2 48306  53.0557 294.4129 0000476 108.9339 251.1702 15.06390849 19620","OBJECT_TYPE":"PAYLOAD","INCLINATION":"53.0557","TLE_LINE1":"1 48306U 21036AG  21245.65580210  .00000575  00000-0  57470-4 0  9998","NORAD_CAT_ID":"48306","MEAN_ELEMENT_THEORY":"SGP4","SITE":"AFETR","MEAN_MOTION":"15.06390849","PERIOD":"95.593","MEAN_MOTION_DOT":"0.00000575","RA_OF_ASC_NODE":"294.4129","COUNTRY_CODE":"US","OBJECT_NAME":"STARLINK-2523","OBJECT_ID":"2021-036AG","GP_ID":"183988851","RCS_SIZE":"LARGE","REV_AT_EPOCH":"1962","ECCENTRICITY":"0.00004760","LAUNCH_DATE":"2021-04-29","EPHEMERIS_TYPE":"0","DECAY_DATE":null,"EPOCH":"2021-09-02T15:44:21.301440","MEAN_ANOMALY":"251.1702","ELEMENT_SET_NO":"999","CENTER_NAME":"EARTH","PERIAPSIS":"546.912","CLASSIFICATION_TYPE":"U","APOAPSIS":"547.571","SEMIMAJOR_AXIS":"6925.377","TIME_SYSTEM":"UTC"},{"LAUNCH_DATE":"2021-04-29","RCS_SIZE":"LARGE","GP_ID":"183960386","REV_AT_EPOCH":"1960","OBJECT_ID":"2021-036AH","ECCENTRICITY":"0.00002180","PERIAPSIS":"547.087","APOAPSIS":"547.389","CLASSIFICATION_TYPE":"U","SEMIMAJOR_AXIS":"6925.373","TIME_SYSTEM":"UTC","ELEMENT_SET_NO":"999","CENTER_NAME":"EARTH","EPHEMERIS_TYPE":"0","DECAY_DATE":null,"EPOCH":"2021-09-02T12:27:58.183488","MEAN_ANOMALY":"184.4677","SITE":"AFETR","TLE_LINE1":"1 48307U 21036AH  21245.51942342  .00001656  00000-0  13001-3 0  9994","NORAD_CAT_ID":"48307","MEAN_ELEMENT_THEORY":"SGP4","FILE":"3107538","ARG_OF_PERICENTER":"175.6314","BSTAR":"0.00013001000000","OBJECT_TYPE":"PAYLOAD","TLE_LINE2":"2 48307  53.0551 295.0212 0000218 175.6314 184.4677 15.06391969 19604","INCLINATION":"53.0551","REF_FRAME":"TEME","MEAN_MOTION_DDOT":"0.0000000000000","COUNTRY_CODE":"US","OBJECT_NAME":"STARLINK-2528","RA_OF_ASC_NODE":"295.0212","PERIOD":"95.593","MEAN_MOTION":"15.06391969","MEAN_MOTION_DOT":"0.00001656"},{"PERIAPSIS":"547.095","CLASSIFICATION_TYPE":"U","APOAPSIS":"547.448","SEMIMAJOR_AXIS":"6925.407","TIME_SYSTEM":"UTC","DECAY_DATE":null,"EPHEMERIS_TYPE":"0","EPOCH":"2021-09-02T15:33:46.457568","MEAN_ANOMALY":"227.6275","ELEMENT_SET_NO":"999","CENTER_NAME":"EARTH","GP_ID":"183987850","RCS_SIZE":"LARGE","REV_AT_EPOCH":"1962","OBJECT_ID":"2021-036AJ","ECCENTRICITY":"0.00002550","LAUNCH_DATE":"2021-04-29","RA_OF_ASC_NODE":"294.4451","COUNTRY_CODE":"US","OBJECT_NAME":"STARLINK-2532","MEAN_MOTION":"15.06381033","PERIOD":"95.593","MEAN_MOTION_DOT":"0.00000855","TLE_LINE1":"1 48308U 21036AJ  21245.64845437  .00000855  00000-0  76320-4 0  9990","NORAD_CAT_ID":"48308","MEAN_ELEMENT_THEORY":"SGP4","SITE":"AFETR","REF_FRAME":"TEME","MEAN_MOTION_DDOT":"0.0000000000000","FILE":"3107724","BSTAR":"0.00007632000000","ARG_OF_PERICENTER":"132.4735","OBJECT_TYPE":"PAYLOAD","TLE_LINE2":"2 48308  53.0555 294.4451 0000255 132.4735 227.6275 15.06381033 19623","INCLINATION":"53.0555"}];
